[
    {
        "Altitude(m)": 612513.9505551034,
        "Argument of Periapsis(deg)": 0.0,
        "Eccentricity": 0.0,
        "Inclination(deg)": 60.0,
        "Latitude(deg)": -28.136024558472965,
        "Longitude(deg)": -37.08684217828149,
        "Mean Anomaly(deg)": -147.2727,
        "RAAN(deg)": 225.0,
        "Satellite Name": "Test1 1003",
        "Satellite Number": 1003,
        "Semi-Major Axis(m)": 6980739.136638005,
        "Time(s)": 0
    },
    {
        "Altitude(m)": 612708.3185945611,
        "Argument of Periapsis(deg)": 0.00010418945913296404,
        "Eccentricity": 0.0,
        "Inclination(deg)": 60.0,
        "Latitude(deg)": -28.647763205402743,
        "Longitude(deg)": -36.729610669194344,
        "Mean Anomaly(deg)": -146.65259385453814,
        "RAAN(deg)": 224.99957995086024,
        "Satellite Name": "Test1 1003",
        "Satellite Number": 1003,
        "Semi-Major Axis(m)": 6980739.136638005,
        "Time(s)": 10
    }
]